1 29155U 06018A   12039.37064463 -.00000253  00000-0  10000-3 0  9428
2 29155 000.4183 080.7629 0001905 317.1510 158.8124 01.00269057 20949